OBJECT_NAME,OBJECT_ID,EPOCH,MEAN_MOTION,ECCENTRICITY,INCLINATION,RA_OF_ASC_NODE,ARG_OF_PERICENTER,MEAN_ANOMALY,EPHEMERIS_TYPE,CLASSIFICATION_TYPE,NORAD_CAT_ID,ELEMENT_SET_NO,REV_AT_EPOCH,BSTAR,MEAN_MOTION_DOT,MEAN_MOTION_DDOT
BEIDOU-3S IGSO-1S (C31),2015-019A,2026-06-27T19:18:18.518400,1.00249344,.00390983,49.1741,295.3331,191.8080,168.8013,0,U,40549,999,4118,0,-.163E-5,0
GPS BIIF-10 (PRN 08),2015-033A,2026-06-27T16:35:52.507680,2.00555813,.01151405,53.9742,266.6532,30.2326,330.4797,0,U,40730,999,8020,0,-.21E-6,0
BEIDOU-3S M2S (C58),2015-037A,2026-06-25T21:56:56.733792,1.86232105,.000858,54.8627,301.7450,258.5842,101.3122,0,U,40748,999,7428,0,-.104E-5,0
BEIDOU-3S M1S (C57),2015-037B,2026-06-27T04:40:16.991040,1.86255050,.00032195,54.8580,301.6893,62.4123,297.6156,0,U,40749,999,7431,0,-.96E-6,0
GSAT0206 (GALILEO 10),2015-045B,2026-06-24T11:54:39.024000,1.70473861,.00016854,54.9433,221.4024,336.0482,24.0274,0,U,40890,999,6716,0,.51E-6,0
BEIDOU-3S IGSO-2S (C56),2015-053A,2026-06-27T16:22:53.453568,1.00257701,.00655231,49.2039,258.6560,192.9209,164.5083,0,U,40938,999,3945,0,-.108E-5,0
GPS BIIF-11 (PRN 10),2015-062A,2026-06-26T18:00:06.016032,2.00567519,.01121888,56.9659,30.4428,230.9710,128.0791,0,U,41019,999,7802,0,-.8E-6,0
GSAT-15 (GAGAN/PRN 139),2015-065A,2026-06-27T23:47:26.984256,1.00270717,.00045972,0.0475,263.1784,174.3590,288.9358,0,U,41028,999,3890,0,-.246E-5,0
GSAT0209 (GALILEO 12),2015-079A,2026-06-27T14:20:09.784608,1.70473813,.00050502,55.8332,100.9764,348.4689,11.4959,0,U,41174,999,6495,0,-.35E-6,0
GSAT0208 (GALILEO 11),2015-079B,2026-06-26T01:23:22.771680,1.70473681,.0004595,55.8311,101.0154,354.0123,5.9555,0,U,41175,999,6534,0,-.39E-6,0
IRNSS-1E,2016-003A,2026-06-25T14:21:38.812032,1.00274592,.00190622,33.2517,59.6282,179.1130,2.2203,0,U,41241,999,3816,0,-.319E-5,0
GPS BIIF-12 (PRN 32),2016-007A,2026-06-26T08:14:02.457600,2.00551441,.0095637,55.5293,89.0967,247.1706,111.8201,0,U,41328,999,7602,0,-.66E-6,0
COSMOS 2514 (751),2016-008A,2026-06-27T14:36:47.421216,2.13102749,.00116693,65.0149,312.6490,199.1006,160.8455,0,U,41330,999,8084,0,-.8E-6,0
BEIDOU-2 IGSO-6 (C13),2016-021A,2026-06-26T02:38:38.671584,1.00258926,.0057558,60.2385,37.9495,231.0163,137.2672,0,U,41434,999,3757,0,-.145E-5,0
IRNSS-1G,2016-027A,2026-06-27T23:47:29.133024,1.00282186,.00058122,5.2214,97.2249,4.3684,300.7506,0,U,41469,999,3728,0,-.327E-5,0
GSAT0211 (GALILEO 14),2016-030A,2026-06-27T22:35:47.691744,1.70474008,.00031164,55.0927,221.3989,320.4926,39.5816,0,U,41549,999,6285,0,.69E-6,0
GSAT0210 (GALILEO 13),2016-030B,2026-06-27T00:36:53.275104,1.70473957,.00077922,55.0912,221.4221,256.4220,103.5859,0,U,41550,999,6283,0,.65E-6,0
BEIDOU-2 G7 (C03),2016-037A,2026-06-27T23:25:45.335424,1.00271889,.00068351,1.7467,69.4157,1.9382,306.7203,0,U,41586,999,699,0,-.343E-5,0
EUTELSAT 117 WEST B (WAAS/PRN 131),2016-038B,2026-06-27T15:22:19.860960,1.00249555,.00010787,0.0045,194.2086,160.1811,34.9585,0,U,41589,999,3676,0,.3E-7,0
GSAT0207 (GALILEO 15),2016-069A,2026-06-26T17:13:02.065728,1.70473700,.00050068,55.5042,100.8225,333.0982,26.8500,0,U,41859,999,5956,0,-.38E-6,0
GSAT0212 (GALILEO 16),2016-069B,2026-06-27T03:46:41.185632,1.70473636,.00043882,55.5020,100.8054,12.7020,347.2841,0,U,41860,999,5982,0,-.37E-6,0
GSAT0213 (GALILEO 17),2016-069C,2026-06-27T12:35:25.383840,1.70474304,.00045803,55.5044,100.8032,315.6385,44.3011,0,U,41861,999,5969,0,-.36E-6,0
GSAT0214 (GALILEO 18),2016-069D,2026-06-21T19:19:10.755840,1.70473560,.00038497,55.5000,100.9540,321.2487,38.7039,0,U,41862,999,5972,0,-.23E-6,0
SES-15 (WAAS/PRN 133),2017-026A,2026-06-27T15:18:57.684096,1.00272066,.00007315,0.0223,331.2484,121.5342,283.5476,0,U,42709,999,753,0,.71E-6,0
QZS-2 (QZSS/PRN 194),2017-028A,2026-06-27T11:52:38.452800,1.00281278,.07589853,39.4116,243.0027,269.3731,83.4413,0,U,42738,999,773,0,-.13E-5,0
QZS-3 (QZSS/PRN 199),2017-048A,2026-06-27T23:44:53.623392,1.00271487,.00022965,0.0699,145.6040,308.0325,305.7264,0,U,42917,999,3236,0,-.336E-5,0
COSMOS 2522 (752),2017-055A,2026-06-24T03:53:00.968064,2.13101107,.00084097,64.0776,191.6387,235.5259,124.4452,0,U,42939,999,6812,0,.104E-5,0
QZS-4 (QZSS/PRN 195),2017-062A,2026-06-27T07:59:15.491616,1.00296711,.07467153,40.1035,343.3559,268.2655,281.5675,0,U,42965,999,3190,0,-.35E-5,0
BEIDOU-3 M1 (C19),2017-069A,2026-06-26T06:16:16.154976,1.86231403,.0009932,56.7000,62.7851,326.5159,33.4640,0,U,43001,999,5877,0,-.86E-6,0
BEIDOU-3 M2 (C20),2017-069B,2026-06-26T04:48:06.055776,1.86230727,.0008922,56.6993,62.8231,352.8542,7.1754,0,U,43002,999,5876,0,-.86E-6,0
GSAT0215 (GALILEO 19),2017-079A,2026-06-26T09:37:16.356864,1.70474651,.00035075,55.0715,221.2530,265.2827,94.7697,0,U,43055,999,5314,0,.63E-6,0
